{
  "norad_id": 53498,
  "name": "STARLINK-4439",
  "history": [
    {
      "epoch": "2026-03-28T20:57:19.689120Z",
      "apogee_km": 549.9459265947808,
      "perigee_km": 549.0965956919645,
      "latitude_deg": 1.0295652298687338e-05,
      "longitude_deg": 69.46161417768103,
      "height_km": 552.6878971507002,
      "semi_major_axis_km": 6927.658261143372,
      "eccentricity": 6.13e-05,
      "inclination_deg": 97.6043,
      "raan_deg": 210.081,
      "arg_perigee_deg": 103.955,
      "mean_anomaly_deg": 256.1745,
      "mean_motion_rev_day": 15.05646705
    },
    {
      "epoch": "2026-03-29T20:52:49.289952Z",
      "apogee_km": 549.9944242112088,
      "perigee_km": 549.025939135212,
      "latitude_deg": -4.8026319480108496e-05,
      "longitude_deg": 70.58852523145251,
      "height_km": 552.7485797858219,
      "semi_major_axis_km": 6927.64718167321,
      "eccentricity": 6.99e-05,
      "inclination_deg": 97.6042,
      "raan_deg": 211.0638,
      "arg_perigee_deg": 111.0882,
      "mean_anomaly_deg": 249.0419,
      "mean_motion_rev_day": 15.05650317
    },
    {
      "epoch": "2026-03-30T06:27:01.604448Z",
      "apogee_km": 550.0335655032331,
      "perigee_km": 549.0000981046041,
      "latitude_deg": 6.466707124165127e-05,
      "longitude_deg": -72.96232927692735,
      "height_km": 552.7133023080454,
      "semi_major_axis_km": 6927.653831803918,
      "eccentricity": 7.459e-05,
      "inclination_deg": 97.6045,
      "raan_deg": 211.4573,
      "arg_perigee_deg": 104.8519,
      "mean_anomaly_deg": 255.2791,
      "mean_motion_rev_day": 15.05648149
    },
    {
      "epoch": "2026-03-30T14:25:31.663488Z",
      "apogee_km": 550.0591211592109,
      "perigee_km": 548.9777141485147,
      "latitude_deg": 7.575651398213389e-07,
      "longitude_deg": 167.41281130728476,
      "height_km": 552.7253419621189,
      "semi_major_axis_km": 6927.655417653863,
      "eccentricity": 7.805e-05,
      "inclination_deg": 97.6046,
      "raan_deg": 211.7852,
      "arg_perigee_deg": 105.3296,
      "mean_anomaly_deg": 254.8017,
      "mean_motion_rev_day": 15.05647632
    },
    {
      "epoch": "2026-03-30T20:48:19.463616Z",
      "apogee_km": 550.0646929277063,
      "perigee_km": 548.9710933262777,
      "latitude_deg": 2.9698750804781695e-05,
      "longitude_deg": 71.71272556259984,
      "height_km": 552.6368730601673,
      "semi_major_axis_km": 6927.654893126992,
      "eccentricity": 7.893e-05,
      "inclination_deg": 97.6039,
      "raan_deg": 212.0463,
      "arg_perigee_deg": 95.7788,
      "mean_anomaly_deg": 264.3529,
      "mean_motion_rev_day": 15.05647803
    },
    {
      "epoch": "2026-03-31T20:43:49.958688Z",
      "apogee_km": 550.182688215893,
      "perigee_km": 548.8789011369345,
      "latitude_deg": 7.732174699940838e-05,
      "longitude_deg": 72.83758732319107,
      "height_km": 552.7557169667186,
      "semi_major_axis_km": 6927.667794676413,
      "eccentricity": 9.41e-05,
      "inclination_deg": 97.6034,
      "raan_deg": 213.0308,
      "arg_perigee_deg": 104.3144,
      "mean_anomaly_deg": 255.8188,
      "mean_motion_rev_day": 15.05643597
    },
    {
      "epoch": "2026-04-01T14:16:31.455264Z",
      "apogee_km": 550.088363684019,
      "perigee_km": 548.9383737228127,
      "latitude_deg": -4.6862460134583145e-05,
      "longitude_deg": 169.6633605301742,
      "height_km": 552.7294033317397,
      "semi_major_axis_km": 6927.650368703416,
      "eccentricity": 8.3e-05,
      "inclination_deg": 97.6026,
      "raan_deg": 213.75,
      "arg_perigee_deg": 105.3349,
      "mean_anomaly_deg": 254.7969,
      "mean_motion_rev_day": 15.05649278
    },
    {
      "epoch": "2026-04-02T14:12:01.492416Z",
      "apogee_km": 550.0385432504509,
      "perigee_km": 549.003966766647,
      "latitude_deg": 1.939288487509008e-05,
      "longitude_deg": 170.78753258805108,
      "height_km": 552.7318277861779,
      "semi_major_axis_km": 6927.658255008549,
      "eccentricity": 7.467e-05,
      "inclination_deg": 97.6025,
      "raan_deg": 214.7319,
      "arg_perigee_deg": 106.4493,
      "mean_anomaly_deg": 253.6816,
      "mean_motion_rev_day": 15.05646707
    },
    {
      "epoch": "2026-04-02T22:10:31.231776Z",
      "apogee_km": 550.0200045890833,
      "perigee_km": 548.9959601077917,
      "latitude_deg": 1.2580924396601367e-05,
      "longitude_deg": 51.163601085600924,
      "height_km": 552.7190903396527,
      "semi_major_axis_km": 6927.644982348437,
      "eccentricity": 7.391e-05,
      "inclination_deg": 97.6026,
      "raan_deg": 215.0594,
      "arg_perigee_deg": 106.6839,
      "mean_anomaly_deg": 253.4469,
      "mean_motion_rev_day": 15.05651034
    },
    {
      "epoch": "2026-04-03T20:30:20.100384Z",
      "apogee_km": 550.173385259699,
      "perigee_km": 548.9208599703297,
      "latitude_deg": 8.810921809184992e-06,
      "longitude_deg": 76.21011195228097,
      "height_km": 552.7137645043962,
      "semi_major_axis_km": 6927.6841226150145,
      "eccentricity": 9.04e-05,
      "inclination_deg": 97.6023,
      "raan_deg": 215.9766,
      "arg_perigee_deg": 99.4516,
      "mean_anomaly_deg": 260.6813,
      "mean_motion_rev_day": 15.05638274
    },
    {
      "epoch": "2026-04-04T06:04:31.283904Z",
      "apogee_km": 550.0758482068795,
      "perigee_km": 548.9289082314217,
      "latitude_deg": 4.802264040381943e-05,
      "longitude_deg": -67.33660812416036,
      "height_km": 552.6522417834759,
      "semi_major_axis_km": 6927.63937821915,
      "eccentricity": 8.278e-05,
      "inclination_deg": 97.6022,
      "raan_deg": 216.3695,
      "arg_perigee_deg": 98.618,
      "mean_anomaly_deg": 261.5141,
      "mean_motion_rev_day": 15.05652861
    },
    {
      "epoch": "2026-04-05T13:58:32.384928Z",
      "apogee_km": 550.0140817285683,
      "perigee_km": 549.0755193982277,
      "latitude_deg": 4.8330786020806704e-05,
      "longitude_deg": 174.15920347359057,
      "height_km": 552.7348095735044,
      "semi_major_axis_km": 6927.681800563398,
      "eccentricity": 6.774e-05,
      "inclination_deg": 97.6022,
      "raan_deg": 217.68,
      "arg_perigee_deg": 105.5526,
      "mean_anomaly_deg": 254.5776,
      "mean_motion_rev_day": 15.05639031
    }
  ]
}